<?xml version="1.0" encoding="UTF-8"?>
<kml xmlns="http://www.opengis.net/kml/2.2">
  <Document>
    <name>ZONAS APH - RELEVAMIENTO</name>
    <Style id="poly-E65100-6261-76-normal">
      <LineStyle>
        <color>ff0051e6</color>
        <width>6.261</width>
      </LineStyle>
      <PolyStyle>
        <color>4c0051e6</color>
        <fill>1</fill>
        <outline>1</outline>
      </PolyStyle>
    </Style>
    <Style id="poly-E65100-6261-76-highlight">
      <LineStyle>
        <color>ff0051e6</color>
        <width>9.3915</width>
      </LineStyle>
      <PolyStyle>
        <color>4c0051e6</color>
        <fill>1</fill>
        <outline>1</outline>
      </PolyStyle>
    </Style>
    <StyleMap id="poly-E65100-6261-76">
      <Pair>
        <key>normal</key>
        <styleUrl>#poly-E65100-6261-76-normal</styleUrl>
      </Pair>
      <Pair>
        <key>highlight</key>
        <styleUrl>#poly-E65100-6261-76-highlight</styleUrl>
      </Pair>
    </StyleMap>
    <Placemark>
      <name>1</name>
      <description><![CDATA[nombre: <br>descripción: ]]></description>
      <styleUrl>#poly-E65100-6261-76</styleUrl>
      <ExtendedData>
        <Data name="nombre">
          <value/>
        </Data>
        <Data name="descripción">
          <value/>
        </Data>
      </ExtendedData>
      <Polygon>
        <outerBoundaryIs>
          <LinearRing>
            <tessellate>1</tessellate>
            <coordinates>
              -58.4038918,-34.5986895,0
              -58.4024622,-34.5997995,0
              -58.3951282,-34.6001489,0
              -58.395137,-34.605793,0
              -58.390251,-34.605411,0
              -58.391374,-34.600046,0
              -58.389222,-34.600004,0
              -58.386534,-34.599366,0
              -58.386857,-34.598805,0
              -58.3892829,-34.5984659,0
              -58.389371,-34.59693,0
              -58.391573,-34.596972,0
              -58.3859274,-34.5959746,0
              -58.3890229,-34.5948292,0
              -58.384434,-34.5949361,0
              -58.381499,-34.593284,0
              -58.380913,-34.591787,0
              -58.382773,-34.591505,0
              -58.381893,-34.590372,0
              -58.385662,-34.588231,0
              -58.384489,-34.587218,0
              -58.387327,-34.585683,0
              -58.38855,-34.585401,0
              -58.39119,-34.587425,0
              -58.390113,-34.588071,0
              -58.395978,-34.593617,0
              -58.394706,-34.593818,0
              -58.3968976,-34.5939174,0
              -58.4038958,-34.5935221,0
              -58.410081,-34.589057,0
              -58.4031089,-34.5951158,0
              -58.4044781,-34.5971423,0
              -58.4168787,-34.5973077,0
              -58.417263,-34.597826,0
              -58.4166783,-34.5982118,0
              -58.4043347,-34.5993037,0
              -58.4038918,-34.5986895,0
            </coordinates>
          </LinearRing>
        </outerBoundaryIs>
        <innerBoundaryIs>
          <LinearRing>
            <tessellate>1</tessellate>
            <coordinates>
              -58.4035454,-34.5982091,0
              -58.404732,-34.598037,0
              -58.4038918,-34.5986895,0
              -58.4035454,-34.5982091,0
            </coordinates>
          </LinearRing>
        </innerBoundaryIs>
        <innerBoundaryIs>
          <LinearRing>
            <tessellate>1</tessellate>
            <coordinates>
              -58.3895784,-34.5946237,0
              -58.390104,-34.594804,0
              -58.3890229,-34.5948292,0
              -58.3895784,-34.5946237,0
            </coordinates>
          </LinearRing>
        </innerBoundaryIs>
        <innerBoundaryIs>
          <LinearRing>
            <tessellate>1</tessellate>
            <coordinates>
              -58.3850072,-34.593055,0
              -58.387812,-34.590538,0
              -58.391869,-34.593776,0
              -58.3895784,-34.5946237,0
              -58.3850072,-34.593055,0
            </coordinates>
          </LinearRing>
        </innerBoundaryIs>
        <innerBoundaryIs>
          <LinearRing>
            <tessellate>1</tessellate>
            <coordinates>
              -58.3992753,-34.5988284,0
              -58.3951737,-34.5990827,0
              -58.395192,-34.5975,0
              -58.3956041,-34.5968502,0
              -58.4015143,-34.5953922,0
              -58.4035454,-34.5982091,0
              -58.3992753,-34.5988284,0
            </coordinates>
          </LinearRing>
        </innerBoundaryIs>
      </Polygon>
    </Placemark>
    <Placemark>
      <name>2</name>
      <description><![CDATA[nombre: <br>descripción: ]]></description>
      <styleUrl>#poly-E65100-6261-76</styleUrl>
      <ExtendedData>
        <Data name="nombre">
          <value/>
        </Data>
        <Data name="descripción">
          <value/>
        </Data>
      </ExtendedData>
      <Polygon>
        <outerBoundaryIs>
          <LinearRing>
            <tessellate>1</tessellate>
            <coordinates>
              -58.376093,-34.61737,0
              -58.3816671,-34.6191598,0
              -58.3814986,-34.6209343,0
              -58.3814833,-34.6221476,0
              -58.3814326,-34.6231412,0
              -58.381418,-34.624584,0
              -58.3794422,-34.6283545,0
              -58.379044,-34.629333,0
              -58.378634,-34.630457,0
              -58.37543,-34.634416,0
              -58.371797,-34.631,0
              -58.371453,-34.631909,0
              -58.367808,-34.631613,0
              -58.368409,-34.629571,0
              -58.369022,-34.628439,0
              -58.367837,-34.627315,0
              -58.367839,-34.625293,0
              -58.36274,-34.625069,0
              -58.3656263,-34.6236474,0
              -58.3663665,-34.6171403,0
              -58.376093,-34.61737,0
            </coordinates>
          </LinearRing>
        </outerBoundaryIs>
      </Polygon>
    </Placemark>
    <Placemark>
      <name>4</name>
      <description><![CDATA[nombre: <br>descripción: ]]></description>
      <styleUrl>#poly-E65100-6261-76</styleUrl>
      <ExtendedData>
        <Data name="nombre">
          <value/>
        </Data>
        <Data name="descripción">
          <value/>
        </Data>
      </ExtendedData>
      <Polygon>
        <outerBoundaryIs>
          <LinearRing>
            <tessellate>1</tessellate>
            <coordinates>
              -58.380841,-34.60343,0
              -58.380759,-34.60727,0
              -58.376478,-34.606956,0
              -58.376044,-34.617289,0
              -58.367408,-34.616939,0
              -58.3663733,-34.6167494,0
              -58.3661969,-34.6152884,0
              -58.3670457,-34.6130022,0
              -58.3672869,-34.6120794,0
              -58.367602,-34.607873,0
              -58.369981,-34.602954,0
              -58.380841,-34.60343,0
            </coordinates>
          </LinearRing>
        </outerBoundaryIs>
      </Polygon>
    </Placemark>
    <Placemark>
      <name>5</name>
      <description><![CDATA[nombre: <br>descripción: ]]></description>
      <styleUrl>#poly-E65100-6261-76</styleUrl>
      <ExtendedData>
        <Data name="nombre">
          <value/>
        </Data>
        <Data name="descripción">
          <value/>
        </Data>
      </ExtendedData>
      <Polygon>
        <outerBoundaryIs>
          <LinearRing>
            <tessellate>1</tessellate>
            <coordinates>
              -58.393706,-34.605782,0
              -58.39352,-34.608057,0
              -58.39511,-34.60824,0
              -58.394887,-34.61182,0
              -58.393662,-34.6184805,0
              -58.3843685,-34.6178652,0
              -58.3813465,-34.619207,0
              -58.376093,-34.61737,0
              -58.376418,-34.610676,0
              -58.376567,-34.608633,0
              -58.376667,-34.606812,0
              -58.38447,-34.607283,0
              -58.384374,-34.605078,0
              -58.386649,-34.605221,0
              -58.386575,-34.606313,0
              -58.389094,-34.606457,0
              -58.389058,-34.605395,0
              -58.393706,-34.605782,0
            </coordinates>
          </LinearRing>
        </outerBoundaryIs>
      </Polygon>
    </Placemark>
    <Placemark>
      <name>6</name>
      <description><![CDATA[nombre: <br>descripción: ]]></description>
      <styleUrl>#poly-E65100-6261-76</styleUrl>
      <ExtendedData>
        <Data name="nombre">
          <value/>
        </Data>
        <Data name="descripción">
          <value/>
        </Data>
      </ExtendedData>
      <Polygon>
        <outerBoundaryIs>
          <LinearRing>
            <tessellate>1</tessellate>
            <coordinates>
              -58.375245,-34.636172,0
              -58.374753,-34.638816,0
              -58.370007,-34.638174,0
              -58.370478,-34.63553,0
              -58.375245,-34.636172,0
            </coordinates>
          </LinearRing>
        </outerBoundaryIs>
      </Polygon>
    </Placemark>
    <Placemark>
      <name>9</name>
      <description><![CDATA[nombre: <br>descripción: ]]></description>
      <styleUrl>#poly-E65100-6261-76</styleUrl>
      <ExtendedData>
        <Data name="nombre">
          <value/>
        </Data>
        <Data name="descripción">
          <value/>
        </Data>
      </ExtendedData>
      <Polygon>
        <outerBoundaryIs>
          <LinearRing>
            <tessellate>1</tessellate>
            <coordinates>
              -58.3982671,-34.5871568,0
              -58.4002348,-34.5891035,0
              -58.4018194,-34.5917726,0
              -58.4021167,-34.5941591,0
              -58.4013088,-34.5940107,0
              -58.3995568,-34.5901882,0
              -58.396482,-34.588125,0
              -58.3951805,-34.5898152,0
              -58.392916,-34.590936,0
              -58.387327,-34.585683,0
              -58.395961,-34.578045,0
              -58.402284,-34.573231,0
              -58.406556,-34.577794,0
              -58.405903,-34.578217,0
              -58.406914,-34.579108,0
              -58.406141,-34.579719,0
              -58.406814,-34.581258,0
              -58.406074,-34.581546,0
              -58.405618,-34.580781,0
              -58.404552,-34.581455,0
              -58.4091739,-34.5867025,0
              -58.4153548,-34.5945398,0
              -58.4142836,-34.5947462,0
              -58.4085537,-34.5878538,0
              -58.4056463,-34.5845841,0
              -58.402601,-34.5837823,0
              -58.3982671,-34.5871568,0
            </coordinates>
          </LinearRing>
        </outerBoundaryIs>
      </Polygon>
    </Placemark>
    <Placemark>
      <name>10</name>
      <description><![CDATA[nombre: <br>descripción: ]]></description>
      <styleUrl>#poly-E65100-6261-76</styleUrl>
      <ExtendedData>
        <Data name="nombre">
          <value/>
        </Data>
        <Data name="descripción">
          <value/>
        </Data>
      </ExtendedData>
      <Polygon>
        <outerBoundaryIs>
          <LinearRing>
            <tessellate>1</tessellate>
            <coordinates>
              -58.410253,-34.57866,0
              -58.409252,-34.578983,0
              -58.406709,-34.575725,0
              -58.3938488,-34.5721161,0
              -58.4016381,-34.5673901,0
              -58.407453,-34.56959,0
              -58.406323,-34.567502,0
              -58.424556,-34.555562,0
              -58.4276,-34.557614,0
              -58.435431,-34.551678,0
              -58.445086,-34.557204,0
              -58.444129,-34.558247,0
              -58.44576,-34.559093,0
              -58.443388,-34.561828,0
              -58.44141,-34.560676,0
              -58.439495,-34.561953,0
              -58.440474,-34.562979,0
              -58.430815,-34.568825,0
              -58.426702,-34.571648,0
              -58.42866,-34.572693,0
              -58.427767,-34.573718,0
              -58.424592,-34.572259,0
              -58.410253,-34.57866,0
            </coordinates>
          </LinearRing>
        </outerBoundaryIs>
      </Polygon>
    </Placemark>
    <Placemark>
      <name>11</name>
      <description><![CDATA[nombre: <br>descripción: ]]></description>
      <styleUrl>#poly-E65100-6261-76</styleUrl>
      <ExtendedData>
        <Data name="nombre">
          <value/>
        </Data>
        <Data name="descripción">
          <value/>
        </Data>
      </ExtendedData>
      <Polygon>
        <outerBoundaryIs>
          <LinearRing>
            <tessellate>1</tessellate>
            <coordinates>
              -58.480994,-34.564959,0
              -58.476645,-34.56935,0
              -58.471794,-34.566525,0
              -58.471098,-34.567299,0
              -58.466378,-34.572391,0
              -58.460027,-34.568703,0
              -58.460701,-34.567875,0
              -58.4590453,-34.5688046,0
              -58.4561468,-34.5701169,0
              -58.4548593,-34.5685797,0
              -58.443139,-34.574524,0
              -58.440745,-34.572106,0
              -58.4555468,-34.5651659,0
              -58.450544,-34.561883,0
              -58.449761,-34.56271,0
              -58.448369,-34.56298,0
              -58.444955,-34.561144,0
              -58.446456,-34.559615,0
              -58.448913,-34.558284,0
              -58.450632,-34.556593,0
              -58.459396,-34.561542,0
              -58.458526,-34.562459,0
              -58.465095,-34.566364,0
              -58.466552,-34.566454,0
              -58.468292,-34.56604,0
              -58.47038,-34.564384,0
              -58.473555,-34.561217,0
              -58.480994,-34.564959,0
            </coordinates>
          </LinearRing>
        </outerBoundaryIs>
      </Polygon>
    </Placemark>
    <Placemark>
      <name>15</name>
      <description><![CDATA[nombre: <br>descripción: ]]></description>
      <styleUrl>#poly-E65100-6261-76</styleUrl>
      <ExtendedData>
        <Data name="nombre">
          <value/>
        </Data>
        <Data name="descripción">
          <value/>
        </Data>
      </ExtendedData>
      <Polygon>
        <outerBoundaryIs>
          <LinearRing>
            <tessellate>1</tessellate>
            <coordinates>
              -58.433276,-34.635507,0
              -58.431208,-34.635128,0
              -58.432146,-34.630577,0
              -58.43304,-34.627086,0
              -58.430471,-34.626708,0
              -58.431365,-34.623091,0
              -58.43389,-34.623398,0
              -58.433977,-34.622462,0
              -58.435501,-34.622607,0
              -58.435413,-34.623938,0
              -58.439853,-34.624317,0
              -58.439984,-34.623219,0
              -58.444098,-34.62358,0
              -58.443967,-34.624641,0
              -58.445142,-34.624641,0
              -58.444815,-34.627502,0
              -58.442922,-34.627178,0
              -58.442834,-34.62806,0
              -58.44031,-34.627717,0
              -58.43957,-34.627537,0
              -58.439744,-34.62698,0
              -58.436762,-34.626673,0
              -58.435585,-34.631315,0
              -58.437326,-34.631549,0
              -58.436586,-34.632539,0
              -58.435475,-34.63405,0
              -58.434865,-34.635687,0
              -58.433276,-34.635507,0
            </coordinates>
          </LinearRing>
        </outerBoundaryIs>
      </Polygon>
    </Placemark>
    <Placemark>
      <name>13</name>
      <description><![CDATA[nombre: <br>descripción: ]]></description>
      <styleUrl>#poly-E65100-6261-76</styleUrl>
      <ExtendedData>
        <Data name="nombre">
          <value/>
        </Data>
        <Data name="descripción">
          <value/>
        </Data>
      </ExtendedData>
      <Polygon>
        <outerBoundaryIs>
          <LinearRing>
            <tessellate>1</tessellate>
            <coordinates>
              -58.503735,-34.600184,0
              -58.508074,-34.595252,0
              -58.509575,-34.595134,0
              -58.514406,-34.595843,0
              -58.518999,-34.598621,0
              -58.51764,-34.600061,0
              -58.518826,-34.600834,0
              -58.515564,-34.604398,0
              -58.516718,-34.605118,0
              -58.515044,-34.607044,0
              -58.513868,-34.60636,0
              -58.513053,-34.607107,0
              -58.510517,-34.605624,0
              -58.509516,-34.606614,0
              -58.5076,-34.605373,0
              -58.508514,-34.604401,0
              -58.507436,-34.603709,0
              -58.508263,-34.602908,0
              -58.503735,-34.600184,0
            </coordinates>
          </LinearRing>
        </outerBoundaryIs>
      </Polygon>
    </Placemark>
    <Placemark>
      <name>16</name>
      <description><![CDATA[nombre: <br>descripción: ]]></description>
      <styleUrl>#poly-E65100-6261-76</styleUrl>
      <ExtendedData>
        <Data name="nombre">
          <value/>
        </Data>
        <Data name="descripción">
          <value/>
        </Data>
      </ExtendedData>
      <Polygon>
        <outerBoundaryIs>
          <LinearRing>
            <tessellate>1</tessellate>
            <coordinates>
              -58.426722,-34.638528,0
              -58.426101,-34.64164,0
              -58.421681,-34.641081,0
              -58.422608,-34.637861,0
              -58.426722,-34.638528,0
            </coordinates>
          </LinearRing>
        </outerBoundaryIs>
      </Polygon>
    </Placemark>
    <Placemark>
      <name>14</name>
      <description><![CDATA[nombre: <br>descripción: ]]></description>
      <styleUrl>#poly-E65100-6261-76</styleUrl>
      <ExtendedData>
        <Data name="nombre">
          <value/>
        </Data>
        <Data name="descripción">
          <value/>
        </Data>
      </ExtendedData>
      <Polygon>
        <outerBoundaryIs>
          <LinearRing>
            <tessellate>1</tessellate>
            <coordinates>
              -58.487373,-34.639313,0
              -58.48622,-34.643124,0
              -58.485415,-34.645868,0
              -58.477263,-34.652247,0
              -58.474519,-34.649846,0
              -58.474051,-34.648694,0
              -58.470992,-34.646355,0
              -58.48156,-34.637839,0
              -58.484652,-34.639156,0
              -58.484918,-34.63863,0
              -58.487373,-34.639313,0
            </coordinates>
          </LinearRing>
        </outerBoundaryIs>
      </Polygon>
    </Placemark>
    <Placemark>
      <name>17</name>
      <description><![CDATA[nombre: <br>descripción: ]]></description>
      <styleUrl>#poly-E65100-6261-76</styleUrl>
      <ExtendedData>
        <Data name="nombre">
          <value/>
        </Data>
        <Data name="descripción">
          <value/>
        </Data>
      </ExtendedData>
      <Polygon>
        <outerBoundaryIs>
          <LinearRing>
            <tessellate>1</tessellate>
            <coordinates>
              -58.419462,-34.65924,0
              -58.419059,-34.659914,0
              -58.4166375,-34.6610679,0
              -58.414259,-34.658374,0
              -58.41512,-34.656746,0
              -58.414292,-34.656395,0
              -58.41154,-34.652534,0
              -58.410027,-34.652201,0
              -58.410987,-34.649718,0
              -58.414024,-34.650196,0
              -58.41461,-34.652455,0
              -58.416524,-34.656072,0
              -58.418516,-34.65798,0
              -58.419462,-34.65924,0
            </coordinates>
          </LinearRing>
        </outerBoundaryIs>
      </Polygon>
    </Placemark>
    <Placemark>
      <name>18</name>
      <description><![CDATA[nombre: <br>descripción: ]]></description>
      <styleUrl>#poly-E65100-6261-76</styleUrl>
      <ExtendedData>
        <Data name="nombre">
          <value/>
        </Data>
        <Data name="descripción">
          <value/>
        </Data>
      </ExtendedData>
      <Polygon>
        <outerBoundaryIs>
          <LinearRing>
            <tessellate>1</tessellate>
            <coordinates>
              -58.392067,-34.649511,0
              -58.391715,-34.653235,0
              -58.389799,-34.65318,0
              -58.389757,-34.651938,0
              -58.381571,-34.650746,0
              -58.380524,-34.653084,0
              -58.382853,-34.653715,0
              -58.381957,-34.656846,0
              -58.377407,-34.656555,0
              -58.377975,-34.654594,0
              -58.374644,-34.653692,0
              -58.375518,-34.651155,0
              -58.37641,-34.651372,0
              -58.379182,-34.644681,0
              -58.383536,-34.645367,0
              -58.382488,-34.648731,0
              -58.392067,-34.649511,0
            </coordinates>
          </LinearRing>
        </outerBoundaryIs>
      </Polygon>
    </Placemark>
    <Placemark>
      <name>14</name>
      <description><![CDATA[nombre: <br>descripción: ]]></description>
      <styleUrl>#poly-E65100-6261-76</styleUrl>
      <ExtendedData>
        <Data name="nombre">
          <value/>
        </Data>
        <Data name="descripción">
          <value/>
        </Data>
      </ExtendedData>
      <Polygon>
        <outerBoundaryIs>
          <LinearRing>
            <tessellate>1</tessellate>
            <coordinates>
              -58.502198,-34.661495,0
              -58.500805,-34.662786,0
              -58.501262,-34.663209,0
              -58.50093,-34.663524,0
              -58.500179,-34.662984,0
              -58.499199,-34.663781,0
              -58.498622,-34.663317,0
              -58.501577,-34.661,0
              -58.502198,-34.661495,0
            </coordinates>
          </LinearRing>
        </outerBoundaryIs>
      </Polygon>
    </Placemark>
    <Placemark>
      <name>8</name>
      <description><![CDATA[nombre: <br>descripción: ]]></description>
      <styleUrl>#poly-E65100-6261-76</styleUrl>
      <ExtendedData>
        <Data name="nombre">
          <value/>
        </Data>
        <Data name="descripción">
          <value/>
        </Data>
      </ExtendedData>
      <Polygon>
        <outerBoundaryIs>
          <LinearRing>
            <tessellate>1</tessellate>
            <coordinates>
              -58.411795,-34.600841,0
              -58.412677,-34.600608,0
              -58.413903,-34.605268,0
              -58.410291,-34.605591,0
              -58.409747,-34.604565,0
              -58.408594,-34.60478,0
              -58.407529,-34.601991,0
              -58.411795,-34.600841,0
            </coordinates>
          </LinearRing>
        </outerBoundaryIs>
      </Polygon>
    </Placemark>
    <Placemark>
      <name>7</name>
      <description><![CDATA[nombre: <br>descripción: ]]></description>
      <styleUrl>#poly-E65100-6261-76</styleUrl>
      <ExtendedData>
        <Data name="nombre">
          <value/>
        </Data>
        <Data name="descripción">
          <value/>
        </Data>
      </ExtendedData>
      <Polygon>
        <outerBoundaryIs>
          <LinearRing>
            <tessellate>1</tessellate>
            <coordinates>
              -58.381272,-34.617351,0
              -58.383448,-34.617406,0
              -58.383392,-34.618918,0
              -58.381172,-34.618835,0
              -58.381272,-34.617351,0
            </coordinates>
          </LinearRing>
        </outerBoundaryIs>
      </Polygon>
    </Placemark>
    <Placemark>
      <name>3</name>
      <description><![CDATA[nombre: <br>descripción: ]]></description>
      <styleUrl>#poly-E65100-6261-76</styleUrl>
      <ExtendedData>
        <Data name="nombre">
          <value/>
        </Data>
        <Data name="descripción">
          <value/>
        </Data>
      </ExtendedData>
      <MultiGeometry>
        <Polygon>
          <outerBoundaryIs>
            <LinearRing>
              <tessellate>1</tessellate>
              <coordinates>
                -58.3783308,-34.6034096,0
                -58.376964,-34.603354,0
                -58.3769688,-34.6032888,0
                -58.3783308,-34.6034096,0
              </coordinates>
            </LinearRing>
          </outerBoundaryIs>
        </Polygon>
        <Polygon>
          <outerBoundaryIs>
            <LinearRing>
              <tessellate>1</tessellate>
              <coordinates>
                -58.381815,-34.6035511,0
                -58.382477,-34.597976,0
                -58.386959,-34.598281,0
                -58.386674,-34.604149,0
                -58.3783308,-34.6034096,0
                -58.381815,-34.6035511,0
              </coordinates>
            </LinearRing>
          </outerBoundaryIs>
        </Polygon>
        <Polygon>
          <outerBoundaryIs>
            <LinearRing>
              <tessellate>1</tessellate>
              <coordinates>
                -58.3769688,-34.6032888,0
                -58.3699704,-34.602668,0
                -58.368889,-34.60531,0
                -58.366884,-34.605147,0
                -58.367426,-34.600267,0
                -58.369244,-34.601721,0
                -58.36884,-34.60437,0
                -58.369995,-34.602053,0
                -58.3719016,-34.5952496,0
                -58.370318,-34.59623,0
                -58.37179,-34.592064,0
                -58.368909,-34.588057,0
                -58.371844,-34.587614,0
                -58.375249,-34.5921054,0
                -58.3770085,-34.5914342,0
                -58.380399,-34.592758,0
                -58.380151,-34.595711,0
                -58.3781243,-34.5969453,0
                -58.3774376,-34.5969806,0
                -58.381177,-34.59905,0
                -58.380855,-34.603225,0
                -58.3769688,-34.6032888,0
              </coordinates>
            </LinearRing>
          </outerBoundaryIs>
        </Polygon>
      </MultiGeometry>
    </Placemark>
    <Placemark>
      <name>12</name>
      <description><![CDATA[nombre: <br>descripción: ]]></description>
      <styleUrl>#poly-E65100-6261-76</styleUrl>
      <ExtendedData>
        <Data name="nombre">
          <value/>
        </Data>
        <Data name="descripción">
          <value/>
        </Data>
      </ExtendedData>
      <Polygon>
        <outerBoundaryIs>
          <LinearRing>
            <tessellate>1</tessellate>
            <coordinates>
              -58.488231,-34.596661,0
              -58.488252,-34.59685,0
              -58.488372,-34.597552,0
              -58.48686,-34.59775,0
              -58.484891,-34.597912,0
              -58.483303,-34.597958,0
              -58.482715,-34.597706,0
              -58.485521,-34.594251,0
              -58.488807,-34.596076,0
              -58.488231,-34.596661,0
            </coordinates>
          </LinearRing>
        </outerBoundaryIs>
      </Polygon>
    </Placemark>
  </Document>
</kml>
